{"type": "FeatureCollection", "features": [ {"type": "Feature", "properties": {"norad_id": 67093, "name": "STARLINK-35784", "group": "last-30-days", "lat": 37.161398114861946, "lon": 12.486791104173367, "alt_km": 348.9801446852589, "timestamp": "2025-12-27T07:26:23.949247+00:00", "meta": {"OBJECT_NAME": "STARLINK-35784", "OBJECT_ID": "2025-298U", "EPOCH": "2025-12-26T22:00:01.999584", "MEAN_MOTION": 15.74398548, "ECCENTRICITY": 0.00036864, "INCLINATION": 69.9987, "RA_OF_ASC_NODE": 209.6259, "ARG_OF_PERICENTER": 278.4338, "MEAN_ANOMALY": 154.0158, "EPHEMERIS_TYPE": 0, "CLASSIFICATION_TYPE": "U", "NORAD_CAT_ID": 67093, "ELEMENT_SET_NO": 999, "REV_AT_EPOCH": 325, "BSTAR": -0.013293811, "MEAN_MOTION_DOT": -0.01707824, "MEAN_MOTION_DDOT": 0}, "tle": {"line1": "1 67093U 25298U   25360.91668981 -.01707824  00000+0 -13294-1 0  9995", "line2": "2 67093  69.9987 209.6259 0003686 278.4338 154.0158 15.74398548  3254"}}, "geometry": {"type": "Point", "coordinates": [12.486791104173367, 37.161398114861946]}}, {"type": "Feature", "properties": {"norad_id": 67094, "name": "STARLINK-36202", "group": "last-30-days", "lat": 35.2638427809152, "lon": 13.585763305169664, "alt_km": 349.2173178648809, "timestamp": "2025-12-27T07:26:23.949258+00:00", "meta": {"OBJECT_NAME": "STARLINK-36202", "OBJECT_ID": "2025-298V", "EPOCH": "2025-12-26T22:00:01.999584", "MEAN_MOTION": 15.74389158, "ECCENTRICITY": 0.0003609, "INCLINATION": 69.9985, "RA_OF_ASC_NODE": 209.623, "ARG_OF_PERICENTER": 278.4968, "MEAN_ANOMALY": 156.0594, "EPHEMERIS_TYPE": 0, "CLASSIFICATION_TYPE": "U", "NORAD_CAT_ID": 67094, "ELEMENT_SET_NO": 999, "REV_AT_EPOCH": 325, "BSTAR": -0.013304074, "MEAN_MOTION_DOT": -0.01708298, "MEAN_MOTION_DDOT": 0}, "tle": {"line1": "1 67094U 25298V   25360.91668981 -.01708298  00000+0 -13304-1 0  9994", "line2": "2 67094  69.9985 209.6230 0003609 278.4968 156.0594 15.74389158  3259"}}, "geometry": {"type": "Point", "coordinates": [13.585763305169664, 35.2638427809152]}}, {"type": "Feature", "properties": {"norad_id": 67095, "name": "STARLINK-36227", "group": "last-30-days", "lat": 33.433199788392535, "lon": 14.593457854712556, "alt_km": 349.4955145406029, "timestamp": "2025-12-27T07:26:23.949268+00:00", "meta": {"OBJECT_NAME": "STARLINK-36227", "OBJECT_ID": "2025-298W", "EPOCH": "2025-12-26T22:00:01.999584", "MEAN_MOTION": 15.7438621, "ECCENTRICITY": 0.00036019, "INCLINATION": 69.9981, "RA_OF_ASC_NODE": 209.6207, "ARG_OF_PERICENTER": 279.5806, "MEAN_ANOMALY": 156.9895, "EPHEMERIS_TYPE": 0, "CLASSIFICATION_TYPE": "U", "NORAD_CAT_ID": 67095, "ELEMENT_SET_NO": 999, "REV_AT_EPOCH": 319, "BSTAR": -0.013312077, "MEAN_MOTION_DOT": -0.01709006, "MEAN_MOTION_DDOT": 0}, "tle": {"line1": "1 67095U 25298W   25360.91668981 -.01709006  00000+0 -13312-1 0  9992", "line2": "2 67095  69.9981 209.6207 0003601 279.5806 156.9895 15.74386210  3197"}}, "geometry": {"type": "Point", "coordinates": [14.593457854712556, 33.433199788392535]}}, {"type": "Feature", "properties": {"norad_id": 67096, "name": "STARLINK-36228", "group": "last-30-days", "lat": 31.752238232483748, "lon": 15.479896248468668, "alt_km": 349.75345839677993, "timestamp": "2025-12-27T07:26:23.949278+00:00", "meta": {"OBJECT_NAME": "STARLINK-36228", "OBJECT_ID": "2025-298X", "EPOCH": "2025-12-26T22:00:01.999584", "MEAN_MOTION": 15.74384556, "ECCENTRICITY": 0.00037794, "INCLINATION": 69.9983, "RA_OF_ASC_NODE": 209.6198, "ARG_OF_PERICENTER": 278.6998, "MEAN_ANOMALY": 159.7069, "EPHEMERIS_TYPE": 0, "CLASSIFICATION_TYPE": "U", "NORAD_CAT_ID": 67096, "ELEMENT_SET_NO": 999, "REV_AT_EPOCH": 319, "BSTAR": -0.013234908, "MEAN_MOTION_DOT": -0.01700303, "MEAN_MOTION_DDOT": 0}, "tle": {"line1": "1 67096U 25298X   25360.91668981 -.01700303  00000+0 -13235-1 0  9998", "line2": "2 67096  69.9983 209.6198 0003779 278.6998 159.7069 15.74384556  3192"}}, "geometry": {"type": "Point", "coordinates": [15.479896248468668, 31.752238232483748]}}, {"type": "Feature", "properties": {"norad_id": 67097, "name": "STARLINK-36222", "group": "last-30-days", "lat": 29.936697879956807, "lon": 16.39549143185732, "alt_km": 349.9588766671459, "timestamp": "2025-12-27T07:26:23.949288+00:00", "meta": {"OBJECT_NAME": "STARLINK-36222", "OBJECT_ID": "2025-298Y", "EPOCH": "2025-12-26T22:00:01.999584", "MEAN_MOTION": 15.74383901, "ECCENTRICITY": 0.0003706, "INCLINATION": 69.9983, "RA_OF_ASC_NODE": 209.616, "ARG_OF_PERICENTER": 278.3893, "MEAN_ANOMALY": 161.9996, "EPHEMERIS_TYPE": 0, "CLASSIFICATION_TYPE": "U", "NORAD_CAT_ID": 67097, "ELEMENT_SET_NO": 999, "REV_AT_EPOCH": 319, "BSTAR": -0.013282377, "MEAN_MOTION_DOT": -0.01705582, "MEAN_MOTION_DDOT": 0}, "tle": {"line1": "1 67097U 25298Y   25360.91668981 -.01705582  00000+0 -13282-1 0  9995", "line2": "2 67097  69.9983 209.6160 0003706 278.3893 161.9996 15.74383901  3190"}}, "geometry": {"type": "Point", "coordinates": [16.39549143185732, 29.936697879956807]}}, {"type": "Feature", "properties": {"norad_id": 67098, "name": "STARLINK-36205", "group": "last-30-days", "lat": 28.01151909562647, "lon": 17.329229524492746, "alt_km": 350.1687711195191, "timestamp": "2025-12-27T07:26:23.949298+00:00", "meta": {"OBJECT_NAME": "STARLINK-36205", "OBJECT_ID": "2025-298Z", "EPOCH": "2025-12-26T22:00:01.999584", "MEAN_MOTION": 15.74375671, "ECCENTRICITY": 0.00035933, "INCLINATION": 69.9983, "RA_OF_ASC_NODE": 209.614, "ARG_OF_PERICENTER": 277.9841, "MEAN_ANOMALY": 164.5063, "EPHEMERIS_TYPE": 0, "CLASSIFICATION_TYPE": "U", "NORAD_CAT_ID": 67098, "ELEMENT_SET_NO": 999, "REV_AT_EPOCH": 325, "BSTAR": -0.013291275, "MEAN_MOTION_DOT": -0.01705945, "MEAN_MOTION_DDOT": 0}, "tle": {"line1": "1 67098U 25298Z   25360.91668981 -.01705945  00000+0 -13291-1 0  9999", "line2": "2 67098  69.9983 209.6140 0003593 277.9841 164.5063 15.74375671  3257"}}, "geometry": {"type": "Point", "coordinates": [17.329229524492746, 28.01151909562647]}}, {"type": "Feature", "properties": {"norad_id": 67099, "name": "STARLINK-36193", "group": "last-30-days", "lat": 49.10675821730351, "lon": 3.6577624579867023, "alt_km": 361.1267148329189, "timestamp": "2025-12-27T07:26:23.949310+00:00", "meta": {"OBJECT_NAME": "STARLINK-36193", "OBJECT_ID": "2025-298AA", "EPOCH": "2025-12-26T22:00:01.999584", "MEAN_MOTION": 15.70224251, "ECCENTRICITY": 0.00037001, "INCLINATION": 69.9992, "RA_OF_ASC_NODE": 209.6343, "ARG_OF_PERICENTER": 275.6886, "MEAN_ANOMALY": 149.5928, "EPHEMERIS_TYPE": 0, "CLASSIFICATION_TYPE": "U", "NORAD_CAT_ID": 67099, "ELEMENT_SET_NO": 999, "REV_AT_EPOCH": 319, "BSTAR": -0.023090783, "MEAN_MOTION_DOT": -0.02466948, "MEAN_MOTION_DDOT": 0}, "tle": {"line1": "1 67099U 25298AA  25360.91668981 -.02466948  00000+0 -23091-1 0  9997", "line2": "2 67099  69.9992 209.6343 0003700 275.6886 149.5928 15.70224251  3196"}}, "geometry": {"type": "Point", "coordinates": [3.6577624579867023, 49.10675821730351]}}, {"type": "Feature", "properties": {"norad_id": 67100, "name": "STARLINK-36215", "group": "last-30-days", "lat": 22.87821129043832, "lon": 19.653791913121907, "alt_km": 350.8409580579, "timestamp": "2025-12-27T07:26:23.949322+00:00", "meta": {"OBJECT_NAME": "STARLINK-36215", "OBJECT_ID": "2025-298AB", "EPOCH": "2025-12-26T22:00:01.999584", "MEAN_MOTION": 15.74382803, "ECCENTRICITY": 0.00035987, "INCLINATION": 69.9982, "RA_OF_ASC_NODE": 209.6072, "ARG_OF_PERICENTER": 279.2768, "MEAN_ANOMALY": 168.7445, "EPHEMERIS_TYPE": 0, "CLASSIFICATION_TYPE": "U", "NORAD_CAT_ID": 67100, "ELEMENT_SET_NO": 999, "REV_AT_EPOCH": 325, "BSTAR": -0.01325458, "MEAN_MOTION_DOT": -0.01702252, "MEAN_MOTION_DDOT": 0}, "tle": {"line1": "1 67100U 25298AB  25360.91668981 -.01702252  00000+0 -13255-1 0  9991", "line2": "2 67100  69.9982 209.6072 0003598 279.2768 168.7445 15.74382803  3257"}}, "geometry": {"type": "Point", "coordinates": [19.653791913121907, 22.87821129043832]}}, {"type": "Feature", "properties": {"norad_id": 67101, "name": "STARLINK-36200", "group": "last-30-days", "lat": 26.342101108196847, "lon": 18.109915532236904, "alt_km": 350.3654992078518, "timestamp": "2025-12-27T07:26:23.949334+00:00", "meta": {"OBJECT_NAME": "STARLINK-36200", "OBJECT_ID": "2025-298AC", "EPOCH": "2025-12-26T22:00:01.999584", "MEAN_MOTION": 15.74381972, "ECCENTRICITY": 0.00036259, "INCLINATION": 69.9984, "RA_OF_ASC_NODE": 209.6123, "ARG_OF_PERICENTER": 277.4922, "MEAN_ANOMALY": 166.7984, "EPHEMERIS_TYPE": 0, "CLASSIFICATION_TYPE": "U", "NORAD_CAT_ID": 67101, "ELEMENT_SET_NO": 999, "REV_AT_EPOCH": 325, "BSTAR": -0.01330348, "MEAN_MOTION_DOT": -0.01707774, "MEAN_MOTION_DDOT": 0}, "tle": {"line1": "1 67101U 25298AC  25360.91668981 -.01707774  00000+0 -13303-1 0  9990", "line2": "2 67101  69.9984 209.6123 0003625 277.4922 166.7984 15.74381972  3252"}}, "geometry": {"type": "Point", "coordinates": [18.109915532236904, 26.342101108196847]}}, {"type": "Feature", "properties": {"norad_id": 67102, "name": "STARLINK-36255", "group": "last-30-days", "lat": 37.4147759515261, "lon": -77.3979463495786, "alt_km": 337.6250691019486, "timestamp": "2025-12-27T07:26:23.949344+00:00", "meta": {"OBJECT_NAME": "STARLINK-36255", "OBJECT_ID": "2025-299A", "EPOCH": "2025-12-26T22:00:01.999584", "MEAN_MOTION": 15.77277156, "ECCENTRICITY": 0.00016835, "INCLINATION": 42.998, "RA_OF_ASC_NODE": 229.8106, "ARG_OF_PERICENTER": 275.16, "MEAN_ANOMALY": 72.9862, "EPHEMERIS_TYPE": 0, "CLASSIFICATION_TYPE": "U", "NORAD_CAT_ID": 67102, "ELEMENT_SET_NO": 999, "REV_AT_EPOCH": 308, "BSTAR": -0.012112266, "MEAN_MOTION_DOT": -0.01802679, "MEAN_MOTION_DDOT": 0}, "tle": {"line1": "1 67102U 25299A   25360.91668981 -.01802679  00000+0 -12112-1 0  9999", "line2": "2 67102  42.9980 229.8106 0001683 275.1600  72.9862 15.77277156  3080"}}, "geometry": {"type": "Point", "coordinates": [-77.3979463495786, 37.4147759515261]}}]}